[{"OBJECT_NAME":"STARLINK-4263","OBJECT_ID":"2022-076AA","EPOCH":"2026-03-09T08:46:20.429472","MEAN_MOTION":15.08835366,"ECCENTRICITY":0.0001237,"INCLINATION":53.2165,"RA_OF_ASC_NODE":95.3058,"ARG_OF_PERICENTER":86.3331,"MEAN_ANOMALY":273.7803,"EPHEMERIS_TYPE":0,"CLASSIFICATION_TYPE":"U","NORAD_CAT_ID":53010,"ELEMENT_SET_NO":999,"REV_AT_EPOCH":20280,"BSTAR":2.0560941e-5,"MEAN_MOTION_DOT":3.9e-7,"MEAN_MOTION_DDOT":0},{"OBJECT_NAME":"FENGYUN 1C DEB","OBJECT_ID":"1999-025BLM","EPOCH":"2026-03-08T05:01:42.980736","MEAN_MOTION":14.80168873,"ECCENTRICITY":0.01365523,"INCLINATION":98.865,"RA_OF_ASC_NODE":239.8189,"ARG_OF_PERICENTER":197.7839,"MEAN_ANOMALY":161.8566,"EPHEMERIS_TYPE":0,"CLASSIFICATION_TYPE":"U","NORAD_CAT_ID":31231,"ELEMENT_SET_NO":999,"REV_AT_EPOCH":64283,"BSTAR":0.0066268112,"MEAN_MOTION_DOT":0.00059401,"MEAN_MOTION_DDOT":0}]
